{
    "links": {
        "self": "http://www.neowsapp.com/rest/v1/neo/3674025?api_key=iIulBulltgU6a56xZRHN4H3l9WmuAYTsLGpBGhQ2"
    },
    "id": "3674025",
    "neo_reference_id": "3674025",
    "name": "(2014 MD19)",
    "designation": "2014 MD19",
    "nasa_jpl_url": "http://ssd.jpl.nasa.gov/sbdb.cgi?sstr=3674025",
    "absolute_magnitude_h": 22.7,
    "estimated_diameter": {
        "kilometers": {
            "estimated_diameter_min": 0.0766575574,
            "estimated_diameter_max": 0.1714115092
        },
        "meters": {
            "estimated_diameter_min": 76.6575573531,
            "estimated_diameter_max": 171.4115092306
        },
        "miles": {
            "estimated_diameter_min": 0.0476327831,
            "estimated_diameter_max": 0.1065101409
        },
        "feet": {
            "estimated_diameter_min": 251.5011804664,
            "estimated_diameter_max": 562.3737359442
        }
    },
    "is_potentially_hazardous_asteroid": false,
    "close_approach_data": [
        {
            "close_approach_date": "2014-06-10",
            "close_approach_date_full": "2014-Jun-10 01:23",
            "epoch_date_close_approach": 1402363380000,
            "relative_velocity": {
                "kilometers_per_second": "13.1289363918",
                "kilometers_per_hour": "47264.1710105059",
                "miles_per_hour": "29368.1178148335"
            },
            "miss_distance": {
                "astronomical": "0.1946647198",
                "lunar": "75.7245760022",
                "kilometers": "29121427.446226826",
                "miles": "18095215.9287731588"
            },
            "orbiting_body": "Earth"
        }
    ],
    "orbital_data": {
        "orbit_id": "3",
        "orbit_determination_date": "2017-04-06 08:39:55",
        "first_observation_date": "2014-06-23",
        "last_observation_date": "2014-06-28",
        "data_arc_in_days": 5,
        "observations_used": 26,
        "orbit_uncertainty": "9",
        "minimum_orbit_intersection": ".191967",
        "jupiter_tisserand_invariant": "4.195",
        "epoch_osculation": "2456832.5",
        "eccentricity": ".3093973421455765",
        "semi_major_axis": "1.615235651678966",
        "inclination": "23.20647131754676",
        "ascending_node_longitude": "88.66756486600428",
        "orbital_period": "749.8117894323976",
        "perihelion_distance": "1.115486034110716",
        "perihelion_argument": "126.7576208706434",
        "aphelion_distance": "2.114985269247216",
        "perihelion_time": "2456774.038040856165",
        "mean_anomaly": "28.06878417811023",
        "mean_motion": ".4801204849986655",
        "equinox": "J2000",
        "orbit_class": {
            "orbit_class_type": "AMO",
            "orbit_class_description": "Near-Earth asteroid orbits similar to that of 1221 Amor",
            "orbit_class_range": "1.017 AU < q (perihelion) < 1.3 AU"
        }
    },
    "is_sentry_object": false
}